country_code,zipcode,place,state,state_code,province,province_code,community,community_code,latitude,longitude
RS,11000,Beograd,"","","","","","",44.804,20.4651
RS,11031,Brograd,"","","","","","",44.8249,20.4331
RS,11080,Zemun,"","","","","","",44.8458,20.4012
RS,11130,Kaluđerica,"","","","","","",44.7542,20.5541
RS,11194,Rušanj,"","","","","","",44.6848,20.4499
RS,11211,Borča,"","","","","","",44.8697,20.4541
RS,11212,Ovča,"","","","","","",44.8835,20.5334
RS,11213,Padinska Skela,"","","","","","",44.9429,20.4255
RS,11215,Slanci,"","","","","","",44.8077,20.5718
RS,11223,Beli Potok,"","","","","","",44.7063,20.5177
RS,11224,Vrčin,"","","","","","",44.6685,20.5933
RS,11225,Zuce,"","","","","","",44.6981,20.5552
RS,11226,Pinosava,"","","","","","",44.6954,20.483
RS,11232,Ripanj,"","","","","","",44.6386,20.5214
RS,11233,Ralja,"","","","","","",44.5722,20.5622
RS,11235,Mali Požarevac,"","","","","","",44.5633,20.6543
RS,11251,Ostružnica,"","","","","","",44.7277,20.3185
RS,11253,Sremčica,"","","","","","",44.6765,20.3923
RS,11260,Umka,"","","","","","",44.6781,20.3047
RS,11261,Mala Moštanica,"","","","","","",44.6383,20.306
RS,11262,Velika Moštanica,"","","","","","",44.6649,20.3539
RS,11271,Surčin,"","","","","","",44.7931,20.2803
RS,11272,Dobanovci,"","","","","","",44.8263,20.2249
RS,11275,Boljevci,"","","","","","",44.7235,20.2235
RS,11276,Jakovo,"","","","","","",44.7537,20.2601
RS,11277,Ugrinovci,"","","","","","",44.8763,20.1876
RS,11279,Bečmen,"","","","","","",44.7798,20.2058
RS,11280,Progar,"","","","","","",44.7174,20.1605
RS,11283,Altina,"","","","","","",44.7174,20.1605
RS,11300,Smederevo,"","","","","","",44.6644,20.9276
RS,11306,Grocka,"","","","","","",44.6715,20.7165
RS,11307,Boleč,"","","","","","",44.7265,20.6064
RS,11308,Begaljica,"","","","","","",44.6336,20.695
RS,11309,Leštane,"","","","","","",44.7312,20.5757
RS,11310,Lipe,"","","","","","",44.641,20.9999
RS,11311,Radinac,"","","","","","",44.6273,20.968
RS,11312,Mihajlovac,"","","","","","",44.5438,20.9732
RS,11313,Mala Krsna,"","","","","","",44.5862,21.0074
RS,11314,Osipaonica,"","","","","","",44.5461,21.0548
RS,11315,Saraorci,"","","","","","",44.4905,21.0816
RS,11316,Golobok,"","","","","","",44.4547,21.0041
RS,11317,Lozovik,"","","","","","",44.4673,21.1015
RS,11318,Miloševac,"","","","","","",44.4411,21.1108
RS,11319,Krnjevo,"","","","","","",44.4093,21.0476
RS,11320,Velika Plana,"","","","","","",44.3339,21.0768
RS,11321,Lugavčina,"","","","","","",44.5231,21.0708
RS,11322,Skobalj,"","","","","","",44.5646,21.0331
RS,11323,Veliko Orašje,"","","","","","",44.3711,21.0879
RS,11324,Staro Selo,"","","","","","",44.2943,21.0887
RS,11325,Markovac,"","","","","","",44.2388,21.1071
RS,11328,Vodanj,"","","","","","",44.6096,20.8526
RS,11329,Vranovo,"","","","","","",44.601,20.9945
RS,11351,Vinča,"","","","","","",44.7626,20.6216
RS,11400,Mladenovac,"","","","","","",44.4386,20.6992
RS,11405,Međulužje,"","","","","","",44.4092,20.6893
RS,11406,Vlaška,"","","","","","",44.5003,20.6873
RS,11407,Selevac,"","","","","","",44.4953,20.873
RS,11408,Velika Krsna,"","","","","","",44.4784,20.8052
RS,11409,Kovačevac,"","","","","","",44.44,20.74
RS,11411,Ratari,"","","","","","",44.3537,20.8298
RS,11412,Jagnjilo,"","","","","","",44.3774,20.7294
RS,11413,Pružatovac,"","","","","","",44.4179,20.6279
RS,11414,Velika Ivanča,"","","","","","",44.4264,20.5803
RS,11415,Koraćica,"","","","","","",44.451,20.6201
RS,11420,Smederevska Palanka,"","","","","","",44.3655,20.9588
RS,11423,Azanja,"","","","","","",44.4331,20.8797
RS,11425,Kusadak,"","","","","","",44.4002,20.805
RS,11426,Meljak,"","","","","","",44.6231,20.3692
RS,11427,Vranić,"","","","","","",44.6024,20.3287
RS,11430,Umčari,"","","","","","",44.5836,20.7342
RS,11431,Kolari,"","","","","","",44.5843,20.9014
RS,11432,Drugovac,"","","","","","",44.5461,20.8316
RS,11433,Šepšin,"","","","","","",44.5414,20.7045
RS,11450,Sopot,"","","","","","",44.5197,20.5736
RS,11453,Rogača (Sopot),"","","","","","",44.492,20.5135
RS,11454,Sibnica,"","","","","","",44.4644,20.4533
RS,11460,Barajevo,"","","","","","",44.6089,20.4547
RS,11461,Beljina,"","","","","","",44.5153,20.406
RS,11462,Veliki Borak,"","","","","","",44.5394,20.3505
RS,11467,Banatski Dvor,"","","","","","",44.5545,20.4037
RS,11500,Obrenovac,"","","","","","",44.6549,20.2002
RS,11504,Barič,"","","","","","",44.6507,20.2594
RS,11505,Zabrežje,"","","","","","",44.6825,20.2025
RS,11506,Draževac,"","","","","","",44.5958,20.2217
RS,11507,Stubline,"","","","","","",44.5748,20.1348
RS,11508,Grabovac,"","","","","","",44.6005,20.0854
RS,11509,Skela,"","","","","","",44.682,20.0576
RS,11550,Lazarevac,"","","","","","",44.3853,20.2557
RS,11560,Vreoci,"","","","","","",44.4434,20.282
RS,11561,Dudovica,"","","","","","",44.2983,20.2631
RS,11562,Junkovac,"","","","","","",44.4496,20.3492
RS,11563,Veliki Crljeni,"","","","","","",44.4722,20.2907
RS,11564,Stepojevac,"","","","","","",44.5128,20.295
RS,11565,Baroševac,"","","","","","",44.3986,20.3689
RS,11566,Rudovci,"","","","","","",44.3736,20.4123
RS,11567,Mirosaljci,"","","","","","",44.4374,20.4176
RS,12000,Požarevac,"","","","","","",44.6213,21.1878
RS,12206,Bradarac,"","","","","","",44.69,21.2282
RS,12207,Dubravica,"","","","","","",44.6964,21.0802
RS,12208,Kostolac,"","","","","","",44.735,21.1956
RS,12209,Kličevac,"","","","","","",44.7593,21.2904
RS,12220,Veliko Gradište,"","","","","","",44.7633,21.5165
RS,12221,Majilovac,"","","","","","",44.6917,21.362
RS,12222,Braničevo,"","","","","","",44.705,21.5383
RS,12223,Golubac,"","","","","","",44.653,21.632
RS,12224,Dobra,"","","","","","",44.6357,21.9085
RS,12226,Topolovnik,"","","","","","",44.7197,21.4423
RS,12227,Bare,"","","","","","",44.6468,21.3306
RS,12229,Vinci,"","","","","","",44.711,21.6061
RS,12230,Brnjica,"","","","","","",44.6524,21.7687
RS,12240,Kučevo,"","","","","","",44.4775,21.67
RS,12242,Neresnica,"","","","","","",44.4425,21.7262
RS,12253,Srednjevo,"","","","","","",44.6449,21.4893
RS,12254,Rabrovo,"","","","","","",44.5764,21.5138
RS,12255,Duboka,"","","","","","",44.5222,21.7603
RS,12256,Voluja,"","","","","","",44.4915,21.765
RS,12257,Turija (Kučevo),"","","","","","",44.5672,21.6118
RS,12258,Klenje,"","","","","","",44.6011,21.5306
RS,12300,Petrovac na Mlavi,"","","","","","",44.3367,21.4466
RS,12304,Kladurovo,"","","","","","",44.4369,21.5441
RS,12304,Ranovac,"","","","","","",44.4441,21.4762
RS,12305,Melnica,"","","","","","",44.3921,21.5336
RS,12306,Veliko Laole,"","","","","","",44.3195,21.4312
RS,12307,Burovac,"","","","","","",44.2728,21.3578
RS,12308,Oreškovica,"","","","","","",44.3171,21.3251
RS,12309,Vezičevo,"","","","","","",44.239,21.4302
RS,12309,Šetonje,"","","","","","",44.2723,21.4744
RS,12311,Malo Crniće,"","","","","","",44.5561,21.2856
RS,12312,Smoljinac,"","","","","","",44.6062,21.3461
RS,12313,Boževac,"","","","","","",44.5418,21.3943
RS,12315,Rašanac,"","","","","","",44.4609,21.3623
RS,12316,Krepoljin,"","","","","","",44.2627,21.6045
RS,12317,Osanica,"","","","","","",44.2813,21.6677
RS,12318,Vukovac,"","","","","","",44.259,21.7383
RS,12320,Žagubica,"","","","","","",44.1969,21.7884
RS,12321,Laznica,"","","","","","",44.2403,21.81
RS,12322,Suvi Do,"","","","","","",44.2086,21.7275
RS,12370,Aleksandrovac,"","","","","","",44.4492,21.2131
RS,12372,Poljana,"","","","","","",44.5322,21.2026
RS,12373,Simićevo,"","","","","","",44.3933,21.2107
RS,12374,Žabari,"","","","","","",44.3561,21.215
RS,12375,Porodin,"","","","","","",44.3171,21.221
RS,14000,Valjevo,"","","","","","",44.2751,19.8982
RS,14000,Lipljan,"","","","","","",44.2751,19.8982
RS,14201,Brankovina,"","","","","","",44.3466,19.8984
RS,14202,Rajković,"","","","","","",44.2248,20.0131
RS,14203,Dračić,"","","","","","",44.2157,19.9003
RS,14204,Divčibare,"","","","","","",44.106,19.9925
RS,14205,Lelić,"","","","","","",44.2303,19.8293
RS,14206,Poćuta,"","","","","","",44.2106,19.7327
RS,14207,Pecka,"","","","","","",44.2932,19.5407
RS,14210,Ub,"","","","","","",44.4561,20.0739
RS,14211,Radljevo,"","","","","","",44.4624,20.1906
RS,14212,Brgule,"","","","","","",44.5234,20.1749
RS,14213,Pambukovica,"","","","","","",44.4409,19.9231
RS,14214,Banjani,"","","","","","",44.5377,19.9803
RS,14221,Popučke,"","","","","","",44.2928,19.9542
RS,14222,Divci,"","","","","","",44.3013,20.03
RS,14223,Slovac,"","","","","","",44.3412,20.0719
RS,14224,Lajkovac,"","","","","","",44.3694,20.1653
RS,14225,Bogovađa,"","","","","","",44.3275,20.2005
RS,14226,Jabučje,"","","","","","",44.3694,20.1653
RS,14240,Ljig,"","","","","","",44.2301,20.2382
RS,14242,Mionica,"","","","","","",44.2519,20.0817
RS,14243,Gornja Toplica,"","","","","","",44.223,20.1679
RS,14244,Brežđe,"","","","","","",44.1726,20.0606
RS,14245,Slavkovica,"","","","","","",44.1707,20.2457
RS,14246,Belanovica,"","","","","","",44.2495,20.3961
RS,14251,Pričević,"","","","","","",44.2797,19.7689
RS,14252,Kamenica,"","","","","","",44.343,19.7233
RS,14253,Osečina,"","","","","","",44.3731,19.6014
RS,14254,Komirić,"","","","","","",44.4123,19.5415
RS,14255,Stave,"","","","","","",44.2588,19.6916
RS,15000,Šabac,"","","","","","",44.7467,19.69
RS,15211,Mačvanski Pričinović,"","","","","","",44.8497,19.6311
RS,15212,Drenovac,"","","","","","",44.8665,19.7094
RS,15213,Orid,"","","","","","",44.7103,19.7997
RS,15214,Debrc,"","","","","","",44.6227,19.9027
RS,15215,Provo,"","","","","","",44.6696,19.9104
RS,15220,Koceljeva,"","","","","","",44.4736,19.8117
RS,15221,Svileuva,"","","","","","",44.5215,19.8279
RS,15222,Kamenica,"","","","","","",44.4733,19.722
RS,15224,Cerovac,"","","","","","",44.6771,19.7514
RS,15225,Vladimirci,"","","","","","",44.6147,19.7853
RS,15226,Draginje,"","","","","","",44.533,19.7625
RS,15227,Donje Crniljevo,"","","","","","",44.4677,19.6257
RS,15232,Varna,"","","","","","",44.6791,19.6515
RS,15233,Metlić,"","","","","","",44.5731,19.6299
RS,15234,Tekeriš,"","","","","","",44.5573,19.5297
RS,15235,Dobrić,"","","","","","",44.7022,19.5793
RS,15300,Loznica,"","","","","","",44.5312,19.2427
RS,15302,Korenita,"","","","","","",44.5121,19.2891
RS,15303,Tršić,"","","","","","",44.495,19.2649
RS,15304,Petlovača,"","","","","","",44.7222,19.4467
RS,15305,Lipolist,"","","","","","",44.6978,19.501
RS,15306,Prnjavor,"","","","","","",44.7006,19.3869
RS,15307,Lešnica,"","","","","","",44.6525,19.31
RS,15308,Jadranska Lešnica,"","","","","","",44.5973,19.3521
RS,15309,Brezjak,"","","","","","",44.5097,19.3413
RS,15310,Ribari,"","","","","","",44.7096,19.4247
RS,15311,Draginac,"","","","","","",44.5084,19.4163
RS,15312,Zavlaka,"","","","","","",44.4565,19.4835
RS,15313,Bela Crkva,"","","","","","",44.3955,19.4796
RS,15314,Krupanj,"","","","","","",44.3656,19.3619
RS,15315,Zajača,"","","","","","",44.4568,19.2443
RS,15316,Banja Koviljača,"","","","","","",44.5146,19.1528
RS,15317,Donja Borina,"","","","","","",44.4352,19.179
RS,15318,Mali Zvornik,"","","","","","",44.3734,19.1065
RS,15319,Uzovnica,"","","","","","",44.2693,19.3524
RS,15320,Ljubovija,"","","","","","",44.1894,19.3767
RS,15321,Radalj,"","","","","","",44.3964,19.1773
RS,15322,Velika Reka,"","","","","","",44.27,19.2281
RS,15323,Donja Orovica,"","","","","","",44.22,19.4729
RS,15324,Drlače,"","","","","","",44.1432,19.4889
RS,15341,Lipnički Šor,"","","","","","",44.5806,19.2657
RS,15342,Rainovača,"","","","","","",44.5806,19.2657
RS,15350,Bogatić,"","","","","","",44.8375,19.4806
RS,15352,Zminjak,"","","","","","",44.7571,19.4707
RS,15353,Majur,"","","","","","",44.773,19.648
RS,15354,Štitar,"","","","","","",44.7941,19.5953
RS,15355,Crna Bara,"","","","","","",44.8737,19.3948
RS,15356,Glušci,"","","","","","",44.8902,19.5491
RS,15357,Klenje,"","","","","","",44.8079,19.4351
RS,15358,Badovinci,"","","","","","",44.7853,19.3715
RS,15359,Dublje,"","","","","","",44.8012,19.509
RS,15362,Banovo Polje,"","","","","","",44.9104,19.4492
RS,16000,Leskovac,"","","","","","",42.9981,21.9461
RS,16201,Manojlovce,"","","","","","",43.0143,22.0147
RS,16203,Vučje,"","","","","","",42.8653,21.9105
RS,16204,Miroševce,"","","","","","",42.8655,21.8381
RS,16205,Bojnik,"","","","","","",43.0122,21.721
RS,16206,Kosančić,"","","","","","",43.0883,21.7779
RS,16210,Vlasotince,"","","","","","",42.967,22.134
RS,16211,Guberevac (Leskovac),"","","","","","",42.9181,22.2328
RS,16212,Svođe,"","","","","","",42.9773,22.2656
RS,16213,Sastav Reka,"","","","","","",42.9181,22.2328
RS,16215,Crna Trava,"","","","","","",42.8099,22.2988
RS,16220,Grdelica,"","","","","","",42.9016,22.0705
RS,16221,Velika Grabovnica,"","","","","","",42.9246,22.0114
RS,16222,Predejane,"","","","","","",42.8328,22.1291
RS,16223,Ruplje,"","","","","","",42.8395,22.2255
RS,16230,Lebane,"","","","","","",42.9239,21.7375
RS,16231,Turekovac,"","","","","","",42.9843,21.8816
RS,16232,Bošnjace,"","","","","","",42.9463,21.8272
RS,16233,Orane,"","","","","","",42.9863,21.6278
RS,16236,Klajić,"","","","","","",42.8237,21.7313
RS,16240,Medveđa,"","","","","","",42.8431,21.5833
RS,16244,Gornji Brestovac,"","","","","","",42.8298,21.5432
RS,16246,Sijarinska Banja,"","","","","","",42.7777,21.6037
RS,16247,Tulare,"","","","","","",42.7942,21.4605
RS,16248,Lece,"","","","","","",42.9043,21.5252
RS,16251,Pečanjevce,"","","","","","",43.1351,21.9164
RS,16252,Razgojna,"","","","","","",43.1171,21.955
RS,16253,Brestovac,"","","","","","",43.1532,21.8777
RS,17501,Vranje,"","","","","","",42.5514,21.9003
RS,17507,Vlase,"","","","","","",42.6949,21.8628
RS,17508,Sveti Ilija,"","","","","","",42.4744,22.045
RS,17510,Vladičin Han,"","","","","","",42.7078,22.0633
RS,17511,Priboj Vranjski,"","","","","","",42.6057,22.0121
RS,17512,Stubal,"","","","","","",42.633,22.0334
RS,17513,Lepenica,"","","","","","",42.6696,22.0304
RS,17514,Džep,"","","","","","",42.7682,22.0883
RS,17520,Bujanovac,"","","","","","",42.4592,21.7667
RS,17521,Ristovac,"","","","","","",42.4666,21.8412
RS,17522,Biljača,"","","","","","",42.3552,21.7478
RS,17523,Preševo,"","","","","","",42.3092,21.6492
RS,17524,Klenike,"","","","","","",42.3897,21.8889
RS,17525,Trgovište,"","","","","","",42.3528,22.0622
RS,17526,Donji Stajevac,"","","","","","",42.4012,22.1597
RS,17528,Veliki Trnovac,"","","","","","",42.4791,21.7399
RS,17529,Muhovac,"","","","","","",42.5696,21.7542
RS,17530,Surdulica,"","","","","","",42.6906,22.1708
RS,17530,Suvojnica,"","","","","","",42.6597,22.1234
RS,17531,Jelašnica,"","","","","","",42.6404,22.0883
RS,17532,Vlasina Okruglica,"","","","","","",42.6656,22.3192
RS,17533,Vlasina Rid,"","","","","","",42.731,22.3219
RS,17534,Vlasina Stojkovićevo,"","","","","","",42.6647,22.2748
RS,17535,Klisura,"","","","","","",42.7575,22.4077
RS,17537,Božica,"","","","","","",42.6151,22.4035
RS,17538,Gornja Lisina,"","","","","","",42.5579,22.3632
RS,17540,Bosilegrad,"","","","","","",42.5011,22.4724
RS,17541,Vranjska Banja,"","","","","","",42.555,21.9922
RS,17543,Kriva Feja,"","","","","","",42.5591,22.1749
RS,17544,Donja Ljubata,"","","","","","",42.4892,22.3425
RS,17545,Korbevac,"","","","","","",42.5894,22.0225
RS,17546,Bistar,"","","","","","",42.3744,22.4394
RS,17547,Donje Tlamino,"","","","","","",42.3599,22.4259
RS,17561,Radovnica,"","","","","","",42.4336,22.2286
RS,18000,Niš,"","","","","","",43.3247,21.9033
RS,18201,Lalinac,"","","","","","",43.4446,22.0177
RS,18202,Gornja Toponica,"","","","","","",43.4014,21.8071
RS,18203,Sečanica,"","","","","","",43.3737,21.75
RS,18204,Gornji Matejevac,"","","","","","",43.3647,21.9679
RS,18205,Niška Banja,"","","","","","",43.2951,22.0057
RS,18206,Jelašnica,"","","","","","",43.2897,22.0514
RS,18207,Malča,"","","","","","",43.3343,22.0312
RS,18208,Guševac,"","","","","","",43.3914,22.2752
RS,18209,Medoševac,"","","","","","",43.326,21.8616
RS,18210,Žitkovac,"","","","","","",43.5114,21.6923
RS,18211,Trupale,"","","","","","",43.3581,21.7936
RS,18212,Tešica,"","","","","","",43.4631,21.7495
RS,18213,Trnjane,"","","","","","",43.5384,21.6335
RS,18214,Kulina,"","","","","","",43.4265,21.6165
RS,18215,Veliko Bonjince,"","","","","","",43.4528,21.703
RS,18216,Korman,"","","","","","",43.4528,21.703
RS,18217,Ljuberađa,"","","","","","",43.4528,21.703
RS,18219,Grejač,"","","","","","",43.4193,21.7328
RS,18220,Aleksinac,"","","","","","",43.5417,21.7078
RS,18221,Vrćenovica,"","","","","","",43.4312,21.6701
RS,18222,Veliki Drenovac,"","","","","","",43.412,21.7422
RS,18223,Draževac,"","","","","","",43.45,21.7904
RS,18224,Rutevac,"","","","","","",43.5908,21.6111
RS,18225,Katun Božički,"","","","","","",43.5209,21.7001
RS,18226,Aleksinački Rudnik,"","","","","","",43.5209,21.7001
RS,18227,Subotinac,"","","","","","",43.6022,21.6935
RS,18228,Lužane,"","","","","","",43.4808,21.725
RS,18229,Mozgovo,"","","","","","",43.6589,21.6611
RS,18230,Soko Banja,"","","","","","",43.6433,21.8711
RS,18232,Čitluk,"","","","","","",43.6441,22.022
RS,18234,Jošanica,"","","","","","",43.7282,21.7741
RS,18235,Šarbanovac,"","","","","","",43.7052,21.882
RS,18236,Vrmdža,"","","","","","",43.7137,21.8186
RS,18237,Dugo Polje,"","","","","","",43.6286,21.9523
RS,18240,Gadžin Han,"","","","","","",43.2228,22.0319
RS,18241,Gornji Barbeš,"","","","","","",43.1997,21.9508
RS,18242,Donji Dušnik,"","","","","","",43.1636,22.1044
RS,18244,Zaplanjska Toponica,"","","","","","",43.1604,21.9239
RS,18245,Lički Hanovi,"","","","","","",43.1642,22.0396
RS,18246,Ravna Dubrava,"","","","","","",43.0748,22.1871
RS,18250,Novo Selo,"","","","","","",43.3179,21.8164
RS,18251,Mramor,"","","","","","",43.3155,21.7817
RS,18252,Merošina,"","","","","","",43.2836,21.7204
RS,18253,Jugbogdanovac,"","","","","","",43.2855,21.7795
RS,18254,Donje Međurovo,"","","","","","",43.2974,21.8233
RS,18255,Pukovac,"","","","","","",43.1644,21.8525
RS,18257,Balajinac,"","","","","","",43.2744,21.7775
RS,18258,Jovanovac,"","","","","","",43.3453,21.6848
RS,18260,Popovac,"","","","","","",43.3337,21.8297
RS,18262,Ćurlina,"","","","","","",43.26,21.8858
RS,18300,Pirot,"","","","","","",43.1531,22.5861
RS,18304,Crnoklište,"","","","","","",43.2338,22.4676
RS,18306,Visoka Ržana,"","","","","","",43.1555,22.8107
RS,18307,Krupac,"","","","","","",43.1222,22.6724
RS,18309,Gnjilan,"","","","","","",43.1589,22.5583
RS,18310,Bela Palanka,"","","","","","",43.2183,22.3111
RS,18311,Sićevo,"","","","","","",43.3409,22.0841
RS,18312,Ostrovica,"","","","","","",43.3148,22.1245
RS,18313,Crvena Reka,"","","","","","",43.2717,22.2328
RS,18314,Dolac,"","","","","","",43.319,22.1982
RS,18315,Babin Kal,"","","","","","",43.2939,22.3787
RS,18320,Dimitrovgrad,"","","","","","",43.0142,22.7756
RS,18321,Gradina,"","","","","","",43.0024,22.8029
RS,18322,Sukovo,"","","","","","",43.0499,22.647
RS,18323,Smilovci,"","","","","","",43.0853,22.8512
RS,18324,Kamenica,"","","","","","",43.1343,22.8929
RS,18326,Poganovo,"","","","","","",42.9697,22.6668
RS,18330,Babušnica,"","","","","","",43.0641,22.4138
RS,18332,Strelac,"","","","","","",42.9842,22.4618
RS,18333,Zvonce,"","","","","","",42.9329,22.5797
RS,18355,Temska,"","","","","","",43.2611,22.543
RS,18360,Svrljig,"","","","","","",43.4133,22.1211
RS,18365,Prekonoga,"","","","","","",43.3955,22.103
RS,18366,Niševac,"","","","","","",43.4586,22.0985
RS,18368,Burdimo,"","","","","","",43.4099,22.2372
RS,18400,Prokuplje,"","","","","","",43.2342,21.5881
RS,18403,Velika Plana,"","","","","","",43.3209,21.4405
RS,18404,Donja Rečica,"","","","","","",43.2903,21.4964
RS,18405,Džigolj,"","","","","","",43.3356,21.5605
RS,18406,Dubovo,"","","","","","",43.1114,21.6952
RS,18407,Žitni Potok,"","","","","","",43.0902,21.5748
RS,18408,Dobri Do,"","","","","","",42.926,21.3904
RS,18409,Kruševica,"","","","","","",43.1271,21.4452
RS,18410,Doljevac,"","","","","","",43.1982,21.8326
RS,18411,Belotinac,"","","","","","",43.2651,21.8525
RS,18412,Žitorađa,"","","","","","",43.19,21.7131
RS,18413,Pejkovac,"","","","","","",43.2261,21.7329
RS,18414,Donje Crnatovo,"","","","","","",43.1523,21.7727
RS,18415,Malošište,"","","","","","",43.2399,21.8676
RS,18417,Čečina,"","","","","","",43.1985,21.8698
RS,18420,Blace,"","","","","","",43.2953,21.2858
RS,18421,Donja Trnava,"","","","","","",43.2541,21.5327
RS,18423,Mala Plana,"","","","","","",43.2535,21.4761
RS,18424,Beloljin,"","","","","","",43.2385,21.3967
RS,18425,Gornja Draguša,"","","","","","",43.2795,21.3603
RS,18426,Barbatovac,"","","","","","",43.2281,21.2589
RS,18430,Kuršumlija,"","","","","","",43.1383,21.2734
RS,18432,Barlovo,"","","","","","",43.1815,21.3534
RS,18433,Prolom Banja,"","","","","","",43.1896,21.2124
RS,18435,Kuršumlijska Banja,"","","","","","",43.1896,21.2124
RS,18436,Merćez,"","","","","","",43.2378,21.0662
RS,18437,Lukovska Banja,"","","","","","",43.1896,21.2124
RS,18438,Žuč,"","","","","","",43.2007,21.1568
RS,18440,Rača,"","","","","","",43.008,21.3211
RS,18445,Merdare,"","","","","","",42.9291,21.263
RS,19000,Zaječar,"","","","","","",43.9036,22.2641
RS,19204,Metovnica,"","","","","","",43.9609,22.1379
RS,19205,Gradskovo,"","","","","","",44.021,22.3874
RS,19206,Veliki Izvor,"","","","","","",43.9184,22.3329
RS,19208,Lubnica,"","","","","","",43.8673,22.1972
RS,19209,Mali Jasenovac,"","","","","","",44.0351,22.4492
RS,19210,Bor,"","","","","","",44.0749,22.0959
RS,19213,Donja Bela Reka,"","","","","","",44.0724,22.2061
RS,19214,Rgotina,"","","","","","",44.0116,22.2739
RS,19215,Zlot,"","","","","","",44.0085,21.9855
RS,19216,Brestovačka Banja,"","","","","","",44.0594,22.1315
RS,19219,Krivelj,"","","","","","",44.1294,22.0961
RS,19220,Donji Milanovac,"","","","","","",44.4659,22.1517
RS,19221,Slatina,"","","","","","",44.0415,22.1597
RS,19222,Klokočevac,"","","","","","",44.346,22.1798
RS,19223,Koprivnica,"","","","","","",44.0478,22.3255
RS,19224,Salaš,"","","","","","",44.1122,22.318
RS,19225,Sikole,"","","","","","",44.1772,22.3034
RS,19226,Oštrelj,"","","","","","",44.0704,22.1593
RS,19227,Zvezdan,"","","","","","",43.9009,22.2143
RS,19228,Gamzigradska Banja,"","","","","","",44.1452,22.2265
RS,19229,Borski Brestovac,"","","","","","",44.1452,22.2265
RS,19233,Podgorac,"","","","","","",43.9391,21.9491
RS,19234,Luka,"","","","","","",44.1703,22.1836
RS,19235,Velika Jasikova,"","","","","","",44.0831,22.361
RS,19250,Majdanpek,"","","","","","",44.4277,21.946
RS,19257,Rudna Glava,"","","","","","",44.3406,22.0642
RS,19258,Vlaole,"","","","","","",44.2682,21.9847
RS,19300,Negotin,"","","","","","",44.2264,22.5308
RS,19303,Štubik,"","","","","","",44.2922,22.3523
RS,19304,Jabukovac,"","","","","","",44.3484,22.3822
RS,19305,Urovica,"","","","","","",44.4003,22.4011
RS,19306,Trnjane,"","","","","","",44.2208,22.3588
RS,19307,Plavna,"","","","","","",44.2959,22.2598
RS,19310,Negotin,"","","","","","",44.2264,22.5308
RS,19311,Nikoličevo,"","","","","","",43.9609,22.2376
RS,19312,Vražogrnac,"","","","","","",43.9618,22.3199
RS,19313,Brusnik,"","","","","","",44.1067,22.4481
RS,19314,Rajac,"","","","","","",44.0941,22.5571
RS,19315,Braćevac,"","","","","","",44.0697,22.5041
RS,19316,Kobišnica,"","","","","","",44.199,22.5959
RS,19317,Mokranja,"","","","","","",44.1581,22.5442
RS,19318,Rogljevo,"","","","","","",44.1246,22.564
RS,19320,Kladovo,"","","","","","",44.6115,22.6095
RS,19321,Podvrška,"","","","","","",44.5852,22.4994
RS,19322,Mihajlovac,"","","","","","",44.3662,22.4982
RS,19323,Brza Palanka,"","","","","","",44.4709,22.4468
RS,19325,Tekija,"","","","","","",44.6871,22.4143
RS,19326,Sip,"","","","","","",44.5321,22.5271
RS,19327,Grabovica,"","","","","","",44.4935,22.4894
RS,19328,Velesnica,"","","","","","",44.5189,22.5522
RS,19329,Korbovo,"","","","","","",44.5237,22.7073
RS,19330,Prahovo,"","","","","","",44.2936,22.5831
RS,19334,Radujevac,"","","","","","",44.2668,22.6679
RS,19335,Dušanovac,"","","","","","",44.2935,22.5236
RS,19340,Minićevo,"","","","","","",43.6843,22.2933
RS,19341,Grljan,"","","","","","",43.86,22.2931
RS,19342,Grlište,"","","","","","",43.813,22.2449
RS,19343,Lenovac,"","","","","","",43.8052,22.1649
RS,19344,Vratarnica,"","","","","","",43.7949,22.3034
RS,19345,Donje Zuniče,"","","","","","",43.6226,22.2768
RS,19347,Mali Izvor,"","","","","","",43.7274,22.3184
RS,19350,Knjaževac,"","","","","","",43.5663,22.257
RS,19352,Donja Kamenica,"","","","","","",43.4882,22.3263
RS,19353,Kalna,"","","","","","",43.4166,22.4063
RS,19362,Podvis,"","","","","","",43.5473,22.1873
RS,19366,Beli Potok,"","","","","","",43.5328,22.0833
RS,19367,Vasilj,"","","","","","",43.5703,22.1558
RS,19368,Vina,"","","","","","",43.6186,22.1458
RS,19369,Bučje,"","","","","","",43.68,22.1272
RS,19370,Boljevac,"","","","","","",43.8303,21.9531
RS,19371,Lukovo,"","","","","","",43.8029,21.8393
RS,19372,Bogovina,"","","","","","",43.893,21.9499
RS,19373,Šarbanovac,"","","","","","",43.9613,22.0752
RS,19375,Krivi Vir,"","","","","","",43.8231,21.749
RS,19376,Sumrakovac,"","","","","","",43.9399,22.0305
RS,19377,Savinac,"","","","","","",43.9056,22.0423
RS,19378,Osnić,"","","","","","",43.8868,22.0991
RS,21102,Novi Sad,"","","","","","",45.2517,19.8369
RS,21131,Petrovaradin,"","","","","","",45.2467,19.8794
RS,21201,Rumenka,"","","","","","",45.294,19.7431
RS,21203,Veternik,"","","","","","",45.2545,19.7588
RS,21205,Sremski Karlovci,"","","","","","",45.2028,19.9337
RS,21207,Ledinci,"","","","","","",45.187,19.8055
RS,21208,Sremska Kamenica,"","","","","","",45.2233,19.8426
RS,21209,Bukovac,"","","","","","",45.1897,19.8952
RS,21211,Kisač,"","","","","","",45.3542,19.7297
RS,21212,Stepanovićevo,"","","","","","",45.4137,19.7
RS,21213,Zmajevo,"","","","","","",45.4541,19.6905
RS,21214,Sirig,"","","","","","",45.4403,19.8104
RS,21215,Turija,"","","","","","",45.5386,19.8564
RS,21216,Nadalj,"","","","","","",45.5086,19.9236
RS,21217,Bačko Gradište,"","","","","","",45.5327,20.0308
RS,21220,Bečej,"","","","","","",45.6163,20.0333
RS,21225,Radičević,"","","","","","",45.5819,19.9167
RS,21226,Bačko Petrovo Selo,"","","","","","",45.7068,20.0793
RS,21227,Mileševo,"","","","","","",45.7346,19.8213
RS,21230,Žabalj,"","","","","","",45.3722,20.0639
RS,21233,Čenej,"","","","","","",45.3683,19.8042
RS,21234,Bački Jarak,"","","","","","",45.37,19.8751
RS,21235,Temerin,"","","","","","",45.4086,19.8892
RS,21236,Temerin,"","","","","","",45.4086,19.8892
RS,21237,Gospođinci,"","","","","","",45.4038,19.9881
RS,21238,Čurug,"","","","","","",45.4722,20.0686
RS,21239,Đurđevo,"","","","","","",45.4005,19.9397
RS,21240,Titel,"","","","","","",45.2061,20.2944
RS,21241,Kać,"","","","","","",45.3041,19.943
RS,21242,Budisava,"","","","","","",45.2814,19.9939
RS,21243,Kovilj,"","","","","","",45.2342,20.0233
RS,21244,Šajkaš,"","","","","","",45.2732,20.0905
RS,21245,Mošorin,"","","","","","",45.302,20.1692
RS,21246,Vilovo,"","","","","","",45.2486,20.1552
RS,21247,Gardinovci,"","","","","","",45.2036,20.1356
RS,21248,Lok,"","","","","","",45.2158,20.2122
RS,21299,Rakovac,"","","","","","",45.2078,19.7679
RS,21300,Beočin,"","","","","","",45.2083,19.7206
RS,21311,Čerević,"","","","","","",45.2201,19.6625
RS,21312,Banoštor,"","","","","","",45.2126,19.6118
RS,21313,Susek,"","","","","","",45.2228,19.5335
RS,21314,Neštin,"","","","","","",45.2231,19.4542
RS,21315,Lug,"","","","","","",45.1822,19.5452
RS,21400,Bačka Palanka,"","","","","","",45.2497,19.3966
RS,21410,Futog,"","","","","","",45.2387,19.7142
RS,21411,Begeč,"","","","","","",45.2367,19.6231
RS,21412,Gložan,"","","","","","",45.2795,19.5684
RS,21413,Čelarevo,"","","","","","",45.27,19.5248
RS,21420,Bač,"","","","","","",45.3919,19.2367
RS,21421,Karađorđevo,"","","","","","",45.2922,19.3043
RS,21422,Mladenovo,"","","","","","",45.3034,19.2617
RS,21423,Obrovac,"","","","","","",45.3211,19.3505
RS,21424,Tovariševo,"","","","","","",45.355,19.3243
RS,21425,Selenča,"","","","","","",45.4096,19.3002
RS,21426,Vajska,"","","","","","",45.4108,19.1119
RS,21427,Bođani,"","","","","","",45.3896,19.1067
RS,21428,Plavna,"","","","","","",45.3491,19.1269
RS,21429,Bačko Novo Selo,"","","","","","",45.2934,19.1411
RS,21431,Nova Gajdobra,"","","","","","",45.3309,19.4361
RS,21432,Gajdobra,"","","","","","",45.3506,19.4458
RS,21433,Silbaš,"","","","","","",45.3938,19.4611
RS,21434,Parage,"","","","","","",45.4147,19.4031
RS,21460,Vrbas,"","","","","","",45.5714,19.6408
RS,21465,Bačko Dobro Polje,"","","","","","",45.5015,19.6898
RS,21466,Kucura,"","","","","","",45.5205,19.5887
RS,21467,Savino Selo,"","","","","","",45.5066,19.5223
RS,21468,Despotovo,"","","","","","",45.4598,19.5265
RS,21469,Pivnice,"","","","","","",45.4704,19.4554
RS,21470,Bački Petrovac,"","","","","","",45.3606,19.5917
RS,21471,Ravno Selo,"","","","","","",45.4497,19.621
RS,21472,Kulpin,"","","","","","",45.4024,19.5881
RS,21473,Maglić,"","","","","","",45.3625,19.5321
RS,21480,Srbobran,"","","","","","",45.5539,19.8028
RS,22000,Sremska Mitrovica,"","","","","","",44.9764,19.6122
RS,22201,Zasavica,"","","","","","",44.9705,19.5311
RS,22202,Mačvanska Mitrovica,"","","","","","",44.9674,19.5931
RS,22203,Noćaj,"","","","","","",44.9268,19.5504
RS,22204,Salaš Noćajski,"","","","","","",44.9472,19.5861
RS,22205,Ravnje,"","","","","","",44.9433,19.4228
RS,22207,Ležimir,"","","","","","",45.1232,19.5707
RS,22208,Manđelos,"","","","","","",45.0837,19.5976
RS,22211,Veliki Radinci,"","","","","","",45.0452,19.6747
RS,22212,Bešenovo,"","","","","","",45.0836,19.7041
RS,22213,Grgurevci,"","","","","","",45.1043,19.6464
RS,22217,Bosut,"","","","","","",44.9298,19.3609
RS,22221,Laćarak,"","","","","","",44.997,19.5699
RS,22222,Martinci,"","","","","","",45.0112,19.4597
RS,22223,Kuzmin,"","","","","","",45.0223,19.4046
RS,22224,Kukujevci,"","","","","","",45.0697,19.3407
RS,22225,Bačinci,"","","","","","",45.0816,19.307
RS,22230,Erdevik,"","","","","","",45.1172,19.4088
RS,22231,Čalma,"","","","","","",45.0795,19.507
RS,22232,Divoš,"","","","","","",45.1109,19.5098
RS,22239,Šid,"","","","","","",45.1283,19.2264
RS,22241,Vašica,"","","","","","",45.095,19.1861
RS,22242,Berkasovo,"","","","","","",45.1459,19.2527
RS,22243,Sot,"","","","","","",45.1608,19.3178
RS,22244,Adaševci,"","","","","","",45.0793,19.2213
RS,22245,Morović,"","","","","","",45.0099,19.2151
RS,22246,Višnjićevo,"","","","","","",44.9673,19.2899
RS,22247,Sremska Rača,"","","","","","",44.9208,19.2858
RS,22248,Jamena,"","","","","","",44.884,19.0638
RS,22250,Ilinci,"","","","","","",45.1135,19.1239
RS,22251,Batrovci,"","","","","","",45.0527,19.1323
RS,22253,Bingula,"","","","","","",45.0995,19.4486
RS,22254,Bikić Do,"","","","","","",45.1542,19.2926
RS,22255,Ljuba,"","","","","","",45.1578,19.389
RS,22256,Molovin,"","","","","","",45.183,19.3121
RS,22257,Privina Glava,"","","","","","",45.1419,19.2958
RS,22258,Gibarac,"","","","","","",45.1039,19.2637
RS,22300,Stara Pazova,"","","","","","",44.985,20.1608
RS,22304,Novi Banovci,"","","","","","",44.9569,20.2808
RS,22305,Stari Banovci,"","","","","","",44.9842,20.2838
RS,22306,Belegiš,"","","","","","",45.0192,20.3332
RS,22307,Surduk,"","","","","","",45.0712,20.3251
RS,22308,Golubinci,"","","","","","",44.9853,20.0634
RS,22310,Šimanovci,"","","","","","",44.8739,20.0918
RS,22313,Vojka,"","","","","","",44.9371,20.1524
RS,22314,Krnješevci,"","","","","","",44.8888,20.138
RS,22320,Inđija,"","","","","","",45.0482,20.0816
RS,22321,Ljukovo,"","","","","","",45.026,20.0274
RS,22322,Novi Karlovci,"","","","","","",45.0764,20.1795
RS,22323,Novi Slankamen,"","","","","","",45.1255,20.2391
RS,22324,Beška,"","","","","","",45.1309,20.067
RS,22325,Krčedin,"","","","","","",45.1387,20.1331
RS,22326,Čortanovci,"","","","","","",45.1546,20.0185
RS,22327,Maradik,"","","","","","",45.1014,19.9928
RS,22328,Krušedol,"","","","","","",45.1134,19.9471
RS,22329,Stari Slankamen,"","","","","","",45.1425,20.2577
RS,22330,Nova Pazova,"","","","","","",44.9437,20.2193
RS,22400,Ruma,"","","","","","",45.0081,19.8222
RS,22404,Putinci,"","","","","","",44.9926,19.971
RS,22405,Stejanovci,"","","","","","",45.0564,19.7241
RS,22406,Irig,"","","","","","",45.0523,19.8445
RS,22408,Vrdnik,"","","","","","",45.1217,19.7923
RS,22410,Pećinci,"","","","","","",44.9089,19.9664
RS,22411,Kraljevci,"","","","","","",44.9774,19.8833
RS,22412,Dobrinci,"","","","","","",44.9537,19.9266
RS,22413,Sremski Mihaljevci,"","","","","","",44.8587,20.0408
RS,22414,Subotište,"","","","","","",44.8451,19.9598
RS,22416,Ogar,"","","","","","",44.7923,19.9477
RS,22417,Obrež,"","","","","","",44.7367,19.9741
RS,22418,Ašanja,"","","","","","",44.7564,20.0759
RS,22419,Kupinovo,"","","","","","",44.7071,20.0496
RS,22420,Platičevo,"","","","","","",44.8221,19.7949
RS,22421,Buđanovci,"","","","","","",44.8939,19.8634
RS,22422,Nikinci,"","","","","","",44.8502,19.8232
RS,22423,Grabovci,"","","","","","",44.765,19.8449
RS,22424,Klenak,"","","","","","",44.7885,19.71
RS,22425,Šašinci,"","","","","","",44.9651,19.7415
RS,22426,Jarak,"","","","","","",44.9184,19.7548
RS,22427,Hrtkovci,"","","","","","",44.8815,19.7637
RS,22428,Popinci,"","","","","","",44.9283,20.007
RS,22429,Voganj,"","","","","","",45.0032,19.7561
RS,22440,Sibač,"","","","","","",44.906,19.9334
RS,22441,Deč,"","","","","","",44.8353,20.1139
RS,22442,Prhovo,"","","","","","",44.8825,20.0083
RS,22443,Karlovčić,"","","","","","",44.8232,20.045
RS,23101,Zrenjanin,"","","","","","",45.3836,20.3819
RS,23202,Mihajlovo,"","","","","","",45.4708,20.4151
RS,23203,Ečka,"","","","","","",45.3233,20.4429
RS,23204,Stajićevo,"","","","","","",45.2949,20.4584
RS,23205,Belo Blato,"","","","","","",45.2728,20.375
RS,23206,Mužlja,"","","","","","",45.3441,20.4091
RS,23207,Aradac,"","","","","","",45.3835,20.3014
RS,23208,Elemir,"","","","","","",45.4426,20.3
RS,23209,Taraš,"","","","","","",45.4674,20.1987
RS,23210,Žitište,"","","","","","",45.485,20.5497
RS,23211,Klek,"","","","","","",45.4225,20.4805
RS,23212,Ravni Topolovac,"","","","","","",45.4608,20.5694
RS,23214,Torda,"","","","","","",45.5842,20.459
RS,23215,Čestereg,"","","","","","",45.5636,20.5319
RS,23216,Banatsko Karađorđevo,"","","","","","",45.5869,20.5642
RS,23217,Aleksandrovo,"","","","","","",45.6376,20.5929
RS,23218,Nova Crnja,"","","","","","",45.6683,20.605
RS,23219,Vojvoda Stepa,"","","","","","",45.6854,20.6554
RS,23220,Srpska Crnja,"","","","","","",45.7254,20.6901
RS,23221,Radojevo,"","","","","","",45.7462,20.7892
RS,23222,Toba,"","","","","","",45.6894,20.5571
RS,23224,Lukino Selo,"","","","","","",45.3024,20.4263
RS,23230,Jaša Tomić,"","","","","","",45.4472,20.8555
RS,23231,Krajišnik,"","","","","","",45.4528,20.7298
RS,23232,Begejci,"","","","","","",45.5093,20.609
RS,23233,Srpski Itebej,"","","","","","",45.5672,20.7135
RS,23234,Međa,"","","","","","",45.5381,20.8068
RS,23235,Hetin,"","","","","","",45.662,20.7914
RS,23236,Novi Itebej,"","","","","","",45.5592,20.7003
RS,23237,Banatsko Višnjićevo,"","","","","","",45.4467,20.6808
RS,23240,Sečanj,"","","","","","",45.3667,20.7722
RS,23241,Lazarevo,"","","","","","",45.3889,20.54
RS,23242,Banatski Despotovac,"","","","","","",45.3661,20.6641
RS,23243,Botoš,"","","","","","",45.3084,20.6351
RS,23244,Sutjeska,"","","","","","",45.3831,20.6962
RS,23245,Neuzina,"","","","","","",45.3446,20.7142
RS,23250,Jarkovac,"","","","","","",45.2698,20.7608
RS,23251,Banatska Dubica,"","","","","","",45.2715,20.8283
RS,23252,Boka,"","","","","","",45.3554,20.8299
RS,23253,Konak,"","","","","","",45.3158,20.9147
RS,23254,Šurjan,"","","","","","",45.3996,20.8747
RS,23255,Zlatica,"","","","","","",45.3862,20.5827
RS,23260,Perlez,"","","","","","",45.2081,20.382
RS,23261,Lukićevo,"","","","","","",45.3382,20.4989
RS,23262,Tomaševac,"","","","","","",45.2685,20.6227
RS,23263,Orlovat,"","","","","","",45.2417,20.5809
RS,23264,Farkaždin,"","","","","","",45.1917,20.4724
RS,23265,Knićanin,"","","","","","",45.19,20.3222
RS,23266,Čenta,"","","","","","",45.1081,20.3895
RS,23270,Melenci,"","","","","","",45.5168,20.3196
RS,23271,Kumane,"","","","","","",45.5395,20.229
RS,23272,Novi Bečej,"","","","","","",45.5986,20.1356
RS,23273,Novo Miloševo,"","","","","","",45.7192,20.3036
RS,23274,Bočar,"","","","","","",45.7699,20.2839
RS,23300,Kikinda,"","","","","","",45.8297,20.4653
RS,23305,Mokrin,"","","","","","",45.9336,20.4122
RS,23311,Nakovo,"","","","","","",45.875,20.5671
RS,23312,Banatsko Veliko Selo,"","","","","","",45.8196,20.6077
RS,23313,Novi Kozarci,"","","","","","",45.7824,20.6229
RS,23314,Rusko Selo,"","","","","","",45.7629,20.5712
RS,23315,Banatska Topola,"","","","","","",45.6725,20.4653
RS,23316,Bašaid,"","","","","","",45.641,20.4143
RS,23320,Čoka,"","","","","","",45.9425,20.1433
RS,23323,Iđoš,"","","","","","",45.8265,20.3179
RS,23324,Sajan,"","","","","","",45.8423,20.2782
RS,23325,Padej,"","","","","","",45.8276,20.1628
RS,23326,Ostojićevo,"","","","","","",45.8886,20.1664
RS,23327,Jazovo,"","","","","","",45.8988,20.2213
RS,23328,Crna Bara,"","","","","","",45.9733,20.2761
RS,23329,Vrbica,"","","","","","",46.0058,20.3133
RS,23330,Novi Kneževac,"","","","","","",46.05,20.1
RS,23331,Sanad,"","","","","","",45.976,20.1082
RS,23332,Banatsko Aranđelovo,"","","","","","",46.0645,20.2424
RS,23333,Majdan,"","","","","","",46.0945,20.2599
RS,23334,Srpski Krstur,"","","","","","",46.1284,20.0927
RS,23335,Đala,"","","","","","",46.0627,20.1606
RS,24000,Subotica,"","","","","","",46.1,19.6667
RS,24104,Kelebija,"","","","","","",45.9185,19.769
RS,24206,Bikovo,"","","","","","",46.0217,19.7597
RS,24207,Orom,"","","","","","",45.9771,19.8346
RS,24210,Bajmok,"","","","","","",45.9714,19.4225
RS,24211,Mišićevo,"","","","","","",45.9951,19.49
RS,24213,Đurđin,"","","","","","",46.0136,19.493
RS,24214,Tavankut,"","","","","","",46.0484,19.4872
RS,24215,Ljutovo,"","","","","","",46.0136,19.493
RS,24217,Mala Bosna,"","","","","","",46.0395,19.5725
RS,24220,Čantavir,"","","","","","",45.921,19.7661
RS,24222,Višnjevac,"","","","","","",45.9515,19.7427
RS,24223,Novi Žednik,"","","","","","",45.9412,19.6714
RS,24224,Stari Žednik,"","","","","","",45.9486,19.6303
RS,24300,Bačka Topola,"","","","","","",45.8152,19.6318
RS,24308,Karađorđevo,"","","","","","",45.8582,19.591
RS,24309,Mali Beograd,"","","","","","",45.8847,19.6353
RS,24311,Njegoševo,"","","","","","",45.7623,19.7535
RS,24312,Gunaroš,"","","","","","",45.7603,19.8278
RS,24313,Pobeda,"","","","","","",45.7613,19.7906
RS,24321,Mali Iđoš,"","","","","","",45.7083,19.6653
RS,24322,Lovćenac,"","","","","","",45.6816,19.6921
RS,24323,Feketić,"","","","","","",45.6643,19.6997
RS,24330,Panonija,"","","","","","",45.7799,19.5852
RS,24331,Bajša,"","","","","","",45.7799,19.5852
RS,24340,Stara Moravica,"","","","","","",45.8695,19.4672
RS,24341,Krivaja,"","","","","","",45.7083,19.6653
RS,24342,Pačir,"","","","","","",45.9002,19.4417
RS,24343,Bački Sokolac,"","","","","","",45.8496,19.5402
RS,24344,Orešković,"","","","","","",45.8269,19.5594
RS,24351,Novo Orahovo,"","","","","","",45.8482,19.774
RS,24352,Tornjoš,"","","","","","",45.8769,19.8352
RS,24400,Senta,"","","","","","",45.9275,20.0772
RS,24406,Gornji Breg,"","","","","","",45.92,20.0177
RS,24407,Kevi,"","","","","","",45.8503,19.8803
RS,24408,Bogaraš,"","","","","","",45.9344,19.9275
RS,24410,Horgoš,"","","","","","",46.1539,19.9677
RS,24413,Palić,"","","","","","",46.1065,19.7565
RS,24415,Bački Vinogradi,"","","","","","",46.123,19.8559
RS,24415,Hajdukovo,"","","","","","",46.123,19.8559
RS,24416,Male Pijace,"","","","","","",46.0674,19.9217
RS,24417,Martonoš,"","","","","","",46.1146,20.0589
RS,24418,Šupljak,"","","","","","",46.1128,19.8129
RS,24420,Kanjiža,"","","","","","",46.0667,20.05
RS,24425,Adorjan,"","","","","","",46.0033,20.0401
RS,24426,Trešnjevac,"","","","","","",45.9789,19.9863
RS,24427,Totovo Selo,"","","","","","",45.9638,19.9174
RS,24430,Ada,"","","","","","",45.8025,20.1258
RS,24435,Mol,"","","","","","",45.7646,20.1329
RS,24437,Utrine,"","","","","","",45.812,19.9
RS,25101,Sombor,"","","","","","",45.7742,19.1122
RS,25210,Čonoplja,"","","","","","",45.8113,19.2513
RS,25211,Svetozar Miletić,"","","","","","",45.8522,19.2058
RS,25212,Aleksa Šantić,"","","","","","",45.9284,19.3325
RS,25220,Crvenka,"","","","","","",45.661,19.4543
RS,25221,Kljajićevo,"","","","","","",45.7704,19.277
RS,25222,Telečka,"","","","","","",45.795,19.3818
RS,25223,Sivac,"","","","","","",45.7045,19.3827
RS,25224,Nova Crvenka,"","","","","","",45.6956,19.4877
RS,25225,Kruščić,"","","","","","",45.6139,19.3692
RS,25230,Kula,"","","","","","",45.6089,19.5264
RS,25232,Lipar,"","","","","","",45.6139,19.3692
RS,25233,Ruski Krstur,"","","","","","",45.5639,19.42
RS,25234,Lalić,"","","","","","",45.5193,19.3658
RS,25240,Stapar,"","","","","","",45.6643,19.2006
RS,25242,Bački Brestovac,"","","","","","",45.6182,19.2709
RS,25243,Doroslovo,"","","","","","",45.607,19.1887
RS,25244,Srpski Miletić,"","","","","","",45.5594,19.2038
RS,25245,Bogojevo,"","","","","","",45.5301,19.1302
RS,25250,Odžaci,"","","","","","",45.5067,19.2611
RS,25252,Bački Gračac,"","","","","","",45.5545,19.3235
RS,25253,Ratkovo,"","","","","","",45.4557,19.3373
RS,25254,Deronje,"","","","","","",45.4553,19.2203
RS,25255,Karavukovo,"","","","","","",45.4983,19.1942
RS,25260,Apatin,"","","","","","",45.6726,18.978
RS,25262,Kupusina,"","","","","","",45.7376,19.0108
RS,25263,Prigrevica,"","","","","","",45.6764,19.0881
RS,25264,Sonta,"","","","","","",45.5943,19.0972
RS,25265,Svilojevo,"","","","","","",45.649,19.0664
RS,25270,Bezdan,"","","","","","",45.8494,18.924
RS,25272,Bački Monoštor,"","","","","","",45.7944,18.934
RS,25274,Kolut,"","","","","","",45.8929,18.9276
RS,25275,Bački Breg,"","","","","","",45.9203,18.9294
RS,25280,Riđica,"","","","","","",45.9909,19.1064
RS,25282,Gakovo,"","","","","","",45.9331,19.1005
RS,25283,Rastina,"","","","","","",45.9601,19.0354
RS,25284,Stanišić,"","","","","","",45.939,19.1671
RS,26101,Pančevo,"","","","","","",44.8718,20.6417
RS,26201,Jabuka,"","","","","","",44.9492,20.5998
RS,26202,Glogonj,"","","","","","",44.9864,20.5275
RS,26203,Sefkerin,"","","","","","",45.005,20.4826
RS,26204,Opovo,"","","","","","",45.0522,20.4303
RS,26205,Baranda,"","","","","","",45.0846,20.4426
RS,26206,Sakule,"","","","","","",45.1467,20.4862
RS,26207,Idvor,"","","","","","",45.189,20.5144
RS,26210,Kovačica,"","","","","","",45.1117,20.6214
RS,26212,Kačarevo,"","","","","","",44.9672,20.6996
RS,26213,Crepaja,"","","","","","",45.0098,20.637
RS,26214,Debeljača,"","","","","","",45.0707,20.6015
RS,26215,Padina,"","","","","","",45.1199,20.7286
RS,26216,Uzdin,"","","","","","",45.2051,20.6234
RS,26220,Kovin,"","","","","","",44.7475,20.9761
RS,26222,Bavanište,"","","","","","",44.8191,20.8765
RS,26223,Gaj,"","","","","","",44.7953,21.0659
RS,26224,Dubovac,"","","","","","",44.7955,21.2086
RS,26225,Deliblato,"","","","","","",44.8388,21.0386
RS,26226,Mramorak,"","","","","","",44.8802,20.9709
RS,26227,Dolovo,"","","","","","",44.8982,20.8779
RS,26228,Skorenovac,"","","","","","",44.765,20.9041
RS,26229,Pločica,"","","","","","",44.7203,20.8842
RS,26230,Omoljica,"","","","","","",44.7589,20.7341
RS,26232,Starčevo,"","","","","","",44.8073,20.7055
RS,26233,Ivanovo,"","","","","","",44.7395,20.6978
RS,26234,Banatski Brestovac,"","","","","","",44.7274,20.809
RS,26300,Vršac,"","","","","","",45.1167,21.3036
RS,26310,Alibunar,"","","","","","",45.0808,20.9658
RS,26314,Banatsko Novo Selo,"","","","","","",44.9894,20.7836
RS,26315,Vladimirovac,"","","","","","",45.0312,20.8657
RS,26316,Devojački Bunar,"","","","","","",45.0338,20.8717
RS,26320,Banatski Karlovac,"","","","","","",45.0499,21.018
RS,26322,Nikolinci,"","","","","","",45.0525,21.067
RS,26323,Crvena Crkva,"","","","","","",44.9003,21.3653
RS,26324,Banatska Palanka,"","","","","","",44.8453,21.3318
RS,26327,Banatska Subotica,"","","","","","",44.9833,21.3451
RS,26328,Dupljaja,"","","","","","",44.9287,21.2776
RS,26329,Kajtasovo,"","","","","","",44.8764,21.255
RS,26330,Uljma,"","","","","","",45.0421,21.1539
RS,26331,Ritiševo,"","","","","","",45.0645,21.2281
RS,26332,Vlajkovac,"","","","","","",45.0721,21.1994
RS,26333,Pavliš,"","","","","","",45.1057,21.2395
RS,26334,Veliko Središte,"","","","","","",45.1792,21.4035
RS,26335,Gudurica,"","","","","","",45.1682,21.4426
RS,26336,Kuštilj,"","","","","","",45.0349,21.3799
RS,26337,Vatin,"","","","","","",45.2328,21.2439
RS,26338,Vojvodinci,"","","","","","",45.0156,21.3479
RS,26340,Bela Crkva,"","","","","","",44.8975,21.4172
RS,26343,Izbište,"","","","","","",45.0225,21.1839
RS,26344,Zagajica,"","","","","","",44.9822,21.2288
RS,26345,Straža,"","","","","","",44.9751,21.3019
RS,26346,Jasenovo,"","","","","","",44.9359,21.3014
RS,26347,Grebenac,"","","","","","",44.9017,21.2353
RS,26348,Vračev Gaj,"","","","","","",44.8787,21.3674
RS,26349,Kusić,"","","","","","",44.8767,21.4792
RS,26350,Samoš,"","","","","","",45.2026,20.7739
RS,26351,Seleuš,"","","","","","",45.1277,20.9146
RS,26352,Ilandža,"","","","","","",45.169,20.9201
RS,26353,Novi Kozjak,"","","","","","",45.1826,20.8638
RS,26354,Dobrica,"","","","","","",45.2134,20.8499
RS,26360,Plandište,"","","","","","",45.2272,21.1217
RS,26361,Lokve,"","","","","","",45.152,21.0307
RS,26362,Janošik,"","","","","","",45.1714,21.0066
RS,26363,Jermenovci,"","","","","","",45.1863,21.0455
RS,26364,Margita,"","","","","","",45.216,21.1753
RS,26365,Veliki Gaj,"","","","","","",45.2885,21.1706
RS,26366,Velika Greda,"","","","","","",45.2438,21.035
RS,26367,Barice,"","","","","","",45.1819,21.0828
RS,26368,Kupinik,"","","","","","",45.2925,21.137
RS,26370,Hajdučica,"","","","","","",45.2501,20.9602
RS,26371,Stari Lec,"","","","","","",45.284,20.9643
RS,26373,Miletićevo,"","","","","","",45.3051,21.064
RS,31000,Užice,"","","","","","",43.8586,19.8488
RS,31203,Lunovo Selo,"","","","","","",43.8826,19.9382
RS,31204,Karan (Užice),"","","","","","",43.7488,19.8882
RS,31205,Sevojno,"","","","","","",43.8496,19.9108
RS,31206,Ravni,"","","","","","",43.7397,19.898
RS,31207,Sirogojno,"","","","","","",43.689,19.8875
RS,31208,Rožanstvo,"","","","","","",43.7153,19.8384
RS,31209,Ljubiš,"","","","","","",43.6167,19.8565
RS,31210,Požega,"","","","","","",43.8489,20.0363
RS,31213,Ježevica,"","","","","","",43.9664,20.0292
RS,31214,Gornja Dobrinja,"","","","","","",43.9543,20.0866
RS,31215,Jelen Do,"","","","","","",43.8949,20.1122
RS,31230,Arilje,"","","","","","",43.7531,20.0956
RS,31233,Kruščica,"","","","","","",43.7026,19.9767
RS,31234,Brekovo,"","","","","","",43.6453,20.0115
RS,31236,Divljaka,"","","","","","",43.6783,20.1211
RS,31237,Roge,"","","","","","",43.7691,19.9986
RS,31241,Bioska,"","","","","","",43.8718,19.6629
RS,31242,Kremna,"","","","","","",43.8381,19.5743
RS,31243,Mokra Gora,"","","","","","",43.7885,19.5003
RS,31244,Šljivovica,"","","","","","",43.7947,19.6573
RS,31250,Bajina Bašta,"","","","","","",43.9708,19.5675
RS,31251,Mitrovac,"","","","","","",43.9215,19.4237
RS,31253,Zlodol,"","","","","","",43.9338,19.6729
RS,31254,Kostojevići,"","","","","","",44.0075,19.6872
RS,31255,Rogačica,"","","","","","",44.0372,19.6324
RS,31256,Perućac,"","","","","","",43.9545,19.4353
RS,31257,Kaluđerske Bare,"","","","","","",43.9876,19.5616
RS,31258,Bačevci,"","","","","","",44.0882,19.5119
RS,31260,Kosjerić,"","","","","","",43.9961,19.9069
RS,31262,Seča Reka,"","","","","","",44.0104,19.8361
RS,31263,Varda,"","","","","","",44.0436,19.7513
RS,31265,Ražana,"","","","","","",44.0684,19.9186
RS,31300,Prijepolje,"","","","","","",43.39,19.6487
RS,31305,Brodarevo,"","","","","","",43.229,19.7196
RS,31306,Jabuka,"","","","","","",43.3534,19.5131
RS,31307,Aljinovići,"","","","","","",43.3377,19.8487
RS,31310,Čajetina,"","","","","","",43.7498,19.7127
RS,31311,Bela Zemlja,"","","","","","",43.8115,19.7949
RS,31312,Mačkat,"","","","","","",43.7918,19.782
RS,31313,Gostilje,"","","","","","",43.6529,19.8298
RS,31314,Jablanica,"","","","","","",43.6726,19.7818
RS,31315,Zlatibor,"","","","","","",43.729,19.7003
RS,31317,Draglica,"","","","","","",43.5766,19.7445
RS,31318,Kokin Brod,"","","","","","",43.5144,19.8014
RS,31319,Jasenovo,"","","","","","",43.555,19.8889
RS,31320,Nova Varoš,"","","","","","",43.4606,19.8114
RS,31322,Božetići,"","","","","","",43.4484,19.9722
RS,31325,Bistrica,"","","","","","",43.4652,19.7094
RS,31330,Priboj,"","","","","","",42.992,21.3208
RS,31335,Sastavci,"","","","","","",42.992,21.3208
RS,31337,Banja (Priboj),"","","","","","",42.992,21.3208
RS,32000,Čačak,"","","","","","",43.8914,20.3497
RS,32205,Trbušani,"","","","","","",43.908,20.3118
RS,32210,Mrčajevci,"","","","","","",43.868,20.5269
RS,32212,Preljina,"","","","","","",43.9135,20.4291
RS,32213,Bresnica,"","","","","","",43.8745,20.5901
RS,32215,Gornja Trepča,"","","","","","",43.941,20.4833
RS,32222,Ježevica,"","","","","","",43.8205,20.4029
RS,32223,Zablaće,"","","","","","",43.8456,20.4469
RS,32224,Mršinci,"","","","","","",43.8001,20.4835
RS,32225,Goričani,"","","","","","",43.7939,20.53
RS,32230,Guča,"","","","","","",43.7789,20.2256
RS,32232,Goračići,"","","","","","",43.774,20.3365
RS,32233,Viča,"","","","","","",43.7402,20.2913
RS,32234,Kaona,"","","","","","",43.7118,20.4064
RS,32235,Kotraža,"","","","","","",43.7008,20.2241
RS,32240,Lučani,"","","","","","",43.8608,20.1381
RS,32242,Ovčar Banja,"","","","","","",43.8981,20.1858
RS,32243,Markovica,"","","","","","",43.8541,20.2151
RS,32250,Ivanjica,"","","","","","",43.5803,20.2311
RS,32251,Bukovica,"","","","","","",43.6139,20.1826
RS,32252,Prilički Kiseljak,"","","","","","",43.5195,20.2792
RS,32253,Brezova,"","","","","","",43.5142,20.4881
RS,32254,Vionica,"","","","","","",43.4334,20.3541
RS,32255,Međurečje,"","","","","","",43.5336,20.2276
RS,32256,Bratljevo,"","","","","","",43.4656,20.1943
RS,32257,Kovilje,"","","","","","",43.5195,20.2792
RS,32258,Kušići,"","","","","","",43.6094,20.2706
RS,32259,Bele Vode,"","","","","","",43.4061,20.2853
RS,32300,Gornji Milanovac,"","","","","","",44.026,20.4615
RS,32303,Brđani,"","","","","","",43.9574,20.387
RS,32304,Takovo,"","","","","","",44.0428,20.3875
RS,32305,Beršići,"","","","","","",44.0568,20.313
RS,32306,Gornji Banjani,"","","","","","",44.1035,20.268
RS,32307,Brezna,"","","","","","",44.0518,20.2809
RS,32308,Pranjani,"","","","","","",43.9944,20.1828
RS,32311,Šilopaj,"","","","","","",44.1121,20.4116
RS,32312,Boljkovci,"","","","","","",44.1435,20.3456
RS,32313,Rudnik,"","","","","","",44.1398,20.494
RS,32314,Ugrinovci,"","","","","","",44.1737,20.387
RS,32315,Vraćevšnica,"","","","","","",44.0417,20.619
RS,34000,Kragujevac,"","","","","","",44.0167,20.9167
RS,34202,Grošnica,"","","","","","",43.954,20.876
RS,34203,Ilićevo,"","","","","","",43.9945,20.8796
RS,34204,Divostin,"","","","","","",44.0229,20.8335
RS,34205,Bare,"","","","","","",44.0439,20.687
RS,34206,Gornja Sabanta,"","","","","","",43.942,21.0037
RS,34207,Erdeč,"","","","","","",43.9714,20.8999
RS,34209,Maršić,"","","","","","",44.0326,20.9777
RS,34210,Rača Kragujevačka,"","","","","","",44.0178,21.0629
RS,34211,Jovanovac,"","","","","","",43.7448,21.5098
RS,34212,Malo Krčmare,"","","","","","",44.155,20.9268
RS,34213,Sipić,"","","","","","",44.1677,20.9606
RS,34215,Đurđevo,"","","","","","",44.0178,21.0629
RS,34216,Male Pčelice,"","","","","","",44.0034,20.8545
RS,34217,Bukurovac,"","","","","","",44.0178,21.0629
RS,34220,Lapovo,"","","","","","",44.1842,21.0973
RS,34224,Korman,"","","","","","",44.0503,20.9928
RS,34225,Resnik,"","","","","","",44.1076,20.9254
RS,34226,Badnjevac,"","","","","","",44.1317,20.9824
RS,34227,Batočina,"","","","","","",44.157,21.0534
RS,34228,Brzan,"","","","","","",44.124,21.1151
RS,34229,Žirovnica,"","","","","","",44.1179,21.0261
RS,34230,Gruža,"","","","","","",43.899,20.7694
RS,34231,Dragobraća,"","","","","","",43.9677,20.8382
RS,34232,Guberevac,"","","","","","",43.8321,20.773
RS,34240,Knić,"","","","","","",43.9269,20.7189
RS,34242,Bumbarevo Brdo,"","","","","","",43.9114,20.6245
RS,34243,Toponica,"","","","","","",43.97,20.6737
RS,34244,Zabojnica,"","","","","","",43.9935,20.7546
RS,34300,Aranđelovac,"","","","","","",44.3069,20.56
RS,34301,Bukovik,"","","","","","",44.3294,20.5174
RS,34302,Ranilović,"","","","","","",44.3981,20.5168
RS,34304,Banja,"","","","","","",44.2789,20.6214
RS,34305,Darosava,"","","","","","",44.3341,20.4531
RS,34306,Venčane,"","","","","","",44.4067,20.4678
RS,34307,Stojnik,"","","","","","",44.3762,20.6267
RS,34308,Orašac,"","","","","","",44.3306,20.5867
RS,34309,Jelovik,"","","","","","",44.2644,20.4553
RS,34310,Topola,"","","","","","",44.2542,20.6825
RS,34312,Belosavci,"","","","","","",44.3315,20.6746
RS,34313,Natalinci,"","","","","","",44.2529,20.8037
RS,34314,Donja Šatornja,"","","","","","",44.1941,20.6021
RS,34318,Jarmenovci,"","","","","","",44.1849,20.5462
RS,34321,Cerovac,"","","","","","",44.0956,20.8489
RS,34321,Desimirovac,"","","","","","",44.0725,20.8802
RS,34322,Čumić,"","","","","","",44.1476,20.7821
RS,34323,Stragari,"","","","","","",44.1534,20.6613
RS,34324,Gornja Trnava,"","","","","","",44.1848,20.765
RS,34325,Lužnice,"","","","","","",44.1072,20.8178
RS,35000,Jagodina,"","","","","","",43.9771,21.2612
RS,35203,Siokovac,"","","","","","",43.9771,21.1803
RS,35204,Bagrdan,"","","","","","",44.0711,21.1787
RS,35205,Jovac,"","","","","","",43.9586,21.243
RS,35206,Raševica,"","","","","","",43.8392,21.3247
RS,35207,Potočac,"","","","","","",43.8148,21.3153
RS,35208,Vojska,"","","","","","",44.0909,21.2161
RS,35209,Subotica (Kod Svilajnca),"","","","","","",43.9586,21.243
RS,35210,Svilajnac,"","","","","","",44.2337,21.1967
RS,35211,Sedlare,"","","","","","",44.1987,21.294
RS,35212,Plažane,"","","","","","",44.1457,21.4112
RS,35213,Despotovac,"","","","","","",44.0925,21.4469
RS,35215,Stenjevac,"","","","","","",44.0864,21.5363
RS,35217,Bobovo,"","","","","","",44.237,21.2751
RS,35219,Končarevo,"","","","","","",43.9751,21.3137
RS,35220,Ribare,"","","","","","",44.0101,21.2851
RS,35223,Veliki Popović,"","","","","","",44.1179,21.3573
RS,35224,Medveđa,"","","","","","",44.1509,21.343
RS,35226,Kušiljevo,"","","","","","",44.2844,21.2061
RS,35227,Krušar,"","","","","","",44.0176,21.3351
RS,35228,Supska,"","","","","","",43.9748,21.3678
RS,35230,Ćuprija,"","","","","","",43.9275,21.37
RS,35233,Senje,"","","","","","",43.9651,21.4836
RS,35234,Senjski Rudnik,"","","","","","",43.9958,21.5697
RS,35236,Mijatovac,"","","","","","",43.9527,21.3403
RS,35237,Resavica,"","","","","","",44.0695,21.5174
RS,35241,Jasenovo,"","","","","","",44.1531,21.3077
RS,35242,Kolare,"","","","","","",43.9012,21.2416
RS,35247,Plana,"","","","","","",43.8204,21.5474
RS,35248,Trešnjevica,"","","","","","",43.87,21.3251
RS,35250,Paraćin,"","","","","","",43.8608,21.4078
RS,35254,Popovac,"","","","","","",43.9095,21.5035
RS,35255,Donja Mutnica,"","","","","","",43.8517,21.5613
RS,35256,Sikirica,"","","","","","",43.7789,21.4189
RS,35257,Drenovac,"","","","","","",43.7637,21.427
RS,35258,Donje Vidovo,"","","","","","",43.8029,21.3681
RS,35259,Svojnovo,"","","","","","",43.7993,21.3063
RS,35260,Rekovac,"","","","","","",43.863,21.0934
RS,35261,Glavinci,"","","","","","",43.9248,21.251
RS,35262,Dragoševac,"","","","","","",43.8824,21.2259
RS,35263,Belušić,"","","","","","",43.7829,21.1483
RS,35264,Prevešt,"","","","","","",43.7573,21.0426
RS,35265,Dragovo,"","","","","","",43.7872,21.1007
RS,35267,Oparić,"","","","","","",43.7512,21.1227
RS,35268,Miloševo,"","","","","","",44.1058,21.1509
RS,35269,Strižilo,"","","","","","",44.067,21.1085
RS,35270,Majur,"","","","","","",43.9476,21.2923
RS,35271,Novo Lanište,"","","","","","",44.0317,21.2384
RS,35272,Dragocvet,"","","","","","",43.9404,21.2139
RS,35273,Bunar,"","","","","","",43.92,21.147
RS,35274,Loćika,"","","","","","",43.8583,21.1867
RS,36000,Kraljevo,"","","","","","",43.7258,20.6894
RS,36201,Mataruška Banja,"","","","","","",43.6882,20.6101
RS,36202,Samaila,"","","","","","",43.7623,20.5468
RS,36203,Adrani,"","","","","","",43.7626,20.6347
RS,36204,Lađevci,"","","","","","",43.8172,20.6099
RS,36205,Roćevići,"","","","","","",43.7133,20.5125
RS,36206,Vitanovac,"","","","","","",43.7264,20.7994
RS,36207,Vitkovac,"","","","","","",43.7948,20.7836
RS,36208,Sirča,"","","","","","",43.7464,20.721
RS,36210,Vrnjačka Banja,"","","","","","",43.6273,20.8963
RS,36212,Ratina,"","","","","","",43.7014,20.7516
RS,36214,Vrba,"","","","","","",43.6904,20.7861
RS,36215,Podunavci,"","","","","","",43.6715,20.8301
RS,36216,Novo Selo,"","","","","","",43.6504,20.8734
RS,36217,Vrnjci,"","","","","","",43.6138,20.8781
RS,36220,Čukojevac,"","","","","","",43.7111,20.8362
RS,36221,Žiča,"","","","","","",43.6944,20.6542
RS,36222,Rudno,"","","","","","",43.4147,20.4818
RS,36300,Novi Pazar,"","","","","","",43.1367,20.5122
RS,36305,Deževa,"","","","","","",43.2038,20.4797
RS,36306,Lukare,"","","","","","",43.0731,20.4628
RS,36307,Delimeđe,"","","","","","",43.1041,20.3022
RS,36308,Sopoćani,"","","","","","",43.0977,20.4453
RS,36309,Ribariće,"","","","","","",42.9707,20.4697
RS,36310,Sjenica,"","","","","","",43.2731,19.9994
RS,36311,Štavalj,"","","","","","",43.274,20.1171
RS,36312,Duga Poljana,"","","","","","",43.2515,20.2278
RS,36313,Ugao,"","","","","","",43.0501,20.0568
RS,36314,Štitare,"","","","","","",43.2263,20.3337
RS,36315,Bare,"","","","","","",43.1742,19.7509
RS,36320,Tutin,"","","","","","",42.9903,20.3314
RS,36321,Crkvine,"","","","","","",43.0512,20.3879
RS,36340,Konarevo,"","","","","","",43.702,20.6123
RS,36341,Bogutovac,"","","","","","",43.6663,20.5495
RS,36342,Ušće,"","","","","","",43.4675,20.6146
RS,36343,Studenica,"","","","","","",43.5159,20.6346
RS,36344,Baljevac na Ibru,"","","","","","",43.5159,20.6346
RS,36345,Jošanička Banja,"","","","","","",43.3894,20.7505
RS,36346,Brvenik,"","","","","","",43.3544,20.6461
RS,36350,Raška,"","","","","","",43.2872,20.6153
RS,36353,Rudnica,"","","","","","",43.2368,20.6844
RS,36354,Kopaonik,"","","","","","",43.286,20.8092
RS,37000,Kruševac,"","","","","","",43.58,21.3339
RS,37201,Parunovac,"","","","","","",43.5702,21.3656
RS,37202,Đunis,"","","","","","",43.5291,21.3944
RS,37203,Zdravinje,"","","","","","",43.4982,21.446
RS,37204,Veliki Šiljegovac,"","","","","","",43.519,21.5297
RS,37205,Ribarska Banja,"","","","","","",43.5291,21.3944
RS,37206,Dvorane,"","","","","","",43.4978,21.4119
RS,37208,Čitluk,"","","","","","",43.594,21.2719
RS,37209,Velika Lomnica,"","","","","","",43.4957,21.3414
RS,37210,Ćićevac,"","","","","","",43.7188,21.4408
RS,37212,Stalać,"","","","","","",43.6774,21.4133
RS,37213,Vitoševac,"","","","","","",43.7471,21.5814
RS,37214,Pojate,"","","","","","",43.7421,21.4555
RS,37215,Ražanj,"","","","","","",43.6722,21.5494
RS,37216,Novi Bračin,"","","","","","",43.7531,21.5047
RS,37218,Skorica,"","","","","","",43.7891,21.5647
RS,37220,Brus,"","","","","","",43.3846,21.0289
RS,37221,Gornji Stepoš,"","","","","","",43.5066,21.2959
RS,37222,Kupci,"","","","","","",43.4552,21.2331
RS,37223,Razbojna,"","","","","","",43.3471,21.1659
RS,37224,Lepenac,"","","","","","",43.3447,21.0916
RS,37225,Brzeće,"","","","","","",43.3017,20.885
RS,37226,Blaževo,"","","","","","",43.2289,20.9086
RS,37227,Milentija,"","","","","","",43.4325,20.9822
RS,37228,Zlatari,"","","","","","",43.3869,21.1581
RS,37230,Aleksandrovac,"","","","","","",43.4586,21.0525
RS,37231,Pepeljevac,"","","","","","",43.5644,21.2555
RS,37233,Velika Vrbnica,"","","","","","",43.4897,20.9688
RS,37234,Gornji Stupanj,"","","","","","",43.4727,21.185
RS,37235,Trnavci,"","","","","","",43.4295,21.1166
RS,37236,Rataje,"","","","","","",43.4778,21.1425
RS,37237,Ploča,"","","","","","",43.4484,20.86
RS,37238,Pleš,"","","","","","",43.4844,20.9181
RS,37239,Šljivovo,"","","","","","",43.4084,21.072
RS,37240,Trstenik,"","","","","","",43.6169,21.0025
RS,37242,Stopanja,"","","","","","",43.5802,21.1502
RS,37243,Počekovina,"","","","","","",43.5924,21.0835
RS,37244,Medveđa,"","","","","","",43.6307,21.0757
RS,37245,Velika Drenova,"","","","","","",43.6269,21.1299
RS,37246,Milutovac,"","","","","","",43.6875,21.1291
RS,37251,Globoder,"","","","","","",43.5634,21.1739
RS,37252,Jasika,"","","","","","",43.6147,21.298
RS,37253,Bela Voda,"","","","","","",43.6172,21.1993
RS,37254,Konjuh,"","","","","","",43.6433,21.1814
RS,37255,Kukljin,"","","","","","",43.6042,21.2338
RS,37256,Kaonik,"","","","","","",43.5592,21.4969
RS,37257,Padež,"","","","","","",43.6632,21.2858
RS,37258,Donji Krčin,"","","","","","",43.7351,21.1836
RS,37259,Ribare,"","","","","","",43.4545,21.5327
RS,37260,Varvarin,"","","","","","",43.724,21.3624
RS,37262,Bošnjane,"","","","","","",43.6638,21.3656
RS,37265,Bačina,"","","","","","",43.7261,21.2979
RS,37266,Obrež,"","","","","","",43.7684,21.3482
RS,37271,Dašnica,"","","","","","",43.475,21.1593
RS,37282,Kriva Reka,"","","","","","",43.3747,20.8799
